BEIDOU-3 M15 (C34)      
1 43647U 18078A   20360.68196351 -.00000079  00000-0  10000-3 0  9999
2 43647  55.2134   9.0670 0006548 336.0271 205.5465  1.86232728 14925
BEIDOU-3 M16 (C35)      
1 43648U 18078B   20360.87424321 -.00000079  00000-0  10000-3 0  9992
2 43648  55.2108   9.0682 0004331 339.1093 240.1343  1.86232262 14949
BEIDOU-3 G1 (C59)       
1 43683U 18085A   20360.88251934 -.00000256  00000-0  00000-0 0  9991
2 43683   1.3663 244.2564 0004320   5.0461 303.2879  1.00274786  8013
BEIDOU-3 M17 (C36)      
1 43706U 18093A   20360.59235542  .00000018  00000-0  00000-0 0  9996
2 43706  54.5568 250.4154 0009392 277.7566   8.7078  1.86231831 14287
BEIDOU-3 M18 (C37)      
1 43707U 18093B   20361.00204419  .00000024  00000-0  00000+0 0  9999
2 43707  54.5562 250.3901 0008733 302.6318 349.2033  1.86232064 14296
BEIDOU-2 G8             
1 44231U 19027A   20360.88339170 -.00000227  00000-0  00000-0 0  9995
2 44231   0.5604 307.5822 0008048 275.9383 333.9230  1.00270272  6038
BEIDOU-3 IGSO-2 (C39)   
1 44337U 19035A   20359.94243630 -.00000019  00000-0  00000+0 0  9999
2 44337  55.0757 176.5704 0016579 184.1685 179.5445  1.00283377  5644
BEIDOU-3 M24 (C46)      
1 44543U 19061B   20360.66094152  .00000019  00000-0  10000-3 0  9995
2 44543  54.7779 250.4171 0006406 329.0421 318.3253  1.86231973  8551
BEIDOU-3 IGSO-3         
1 44709U 19073A   20361.00144154 -.00000195  00000-0  00000+0 0  9990
2 44709  58.1131 301.9378 0020381 197.5466  64.1342  1.00275709  4407
BEIDOU-3 M21            
1 44793U 19078A   20360.74896084 -.00000079  00000-0  10000-3 0  9990
2 44793  55.0606   9.1499 0006512 343.4354 197.7235  1.86232681  7416
BEIDOU-3 M19            
1 44864U 19090A   20360.72099306  .00000016  00000-0  00000-0 0  9999
2 44864  55.1468 129.7181 0014042 259.6609   8.0333  1.86231737  6993
BEIDOU-3 M20            
1 44865U 19090B   20360.95493527  .00000014  00000-0  00000-0 0  9996
2 44865  55.1488 129.7406 0012530 277.3731 237.0986  1.86231708  6984
BEIDOU-3 G3             
1 45807U 20040A   20361.10605081 -.00000331  00000-0  00000+0 0  9990
2 45807   2.6826 298.3855 0009564  14.6655 290.7314  1.00268628  2035
