OBJECT_NAME,OBJECT_ID,EPOCH,MEAN_MOTION,ECCENTRICITY,INCLINATION,RA_OF_ASC_NODE,ARG_OF_PERICENTER,MEAN_ANOMALY,EPHEMERIS_TYPE,CLASSIFICATION_TYPE,NORAD_CAT_ID,ELEMENT_SET_NO,REV_AT_EPOCH,BSTAR,MEAN_MOTION_DOT,MEAN_MOTION_DDOT
BEIDOU-3 M15 (C34),2018-078A,2020-12-25T16:22:01.647264,1.86232728,.0006548,55.2134,9.0670,336.0271,205.5465,0,U,43647,999,1492,.1E-3,-.79E-6,0
BEIDOU-3 M16 (C35),2018-078B,2020-12-25T20:58:54.613344,1.86232262,.0004331,55.2108,9.0682,339.1093,240.1343,0,U,43648,999,1494,.1E-3,-.79E-6,0
BEIDOU-3 G1 (C59),2018-085A,2020-12-25T21:10:49.670976,1.00274786,.000432,1.3663,244.2564,5.0461,303.2879,0,U,43683,999,801,0,-.256E-5,0
BEIDOU-3 M17 (C36),2018-093A,2020-12-25T14:12:59.508288,1.86231831,.0009392,54.5568,250.4154,277.7566,8.7078,0,U,43706,999,1428,0,.18E-6,0
BEIDOU-3 M18 (C37),2018-093B,2020-12-26T00:02:56.618016,1.86232064,.0008733,54.5562,250.3901,302.6318,349.2033,0,U,43707,999,1429,0,.24E-6,0
BEIDOU-2 G8,2019-027A,2020-12-25T21:12:05.042880,1.00270272,.0008048,0.5604,307.5822,275.9383,333.9230,0,U,44231,999,603,0,-.227E-5,0
BEIDOU-3 IGSO-2 (C39),2019-035A,2020-12-24T22:37:06.496320,1.00283377,.0016579,55.0757,176.5704,184.1685,179.5445,0,U,44337,999,564,0,-.19E-6,0
BEIDOU-3 M24 (C46),2019-061B,2020-12-25T15:51:45.347328,1.86231973,.0006406,54.7779,250.4171,329.0421,318.3253,0,U,44543,999,855,.1E-3,.19E-6,0
BEIDOU-3 IGSO-3,2019-073A,2020-12-26T00:02:04.549056,1.00275709,.0020381,58.1131,301.9378,197.5466,64.1342,0,U,44709,999,440,0,-.195E-5,0
BEIDOU-3 M21,2019-078A,2020-12-25T17:58:30.216576,1.86232681,.0006512,55.0606,9.1499,343.4354,197.7235,0,U,44793,999,741,.1E-3,-.79E-6,0
BEIDOU-3 M19,2019-090A,2020-12-25T17:18:13.800384,1.86231737,.0014042,55.1468,129.7181,259.6609,8.0333,0,U,44864,999,699,0,.16E-6,0
BEIDOU-3 M20,2019-090B,2020-12-25T22:55:06.407328,1.86231708,.001253,55.1488,129.7406,277.3731,237.0986,0,U,44865,999,698,0,.14E-6,0
BEIDOU-3 G3,2020-040A,2020-12-26T02:32:42.789984,1.00268628,.0009564,2.6826,298.3855,14.6655,290.7314,0,U,45807,999,203,0,-.331E-5,0
